0 FLOCK 3P 69 0F43
1 42020U PLANET   21100.93206019  .00000000  00000+0  22300-3 0    04
2 42020 097.3314 171.2067 0005943 332.8959 048.4267 15.29157516    04
0 FLOCK 2K 18 0F44
1 42887U PLANET   21100.93206019  .00000000  00000+0  18331-3 0    04
2 42887 096.8590 318.1968 0008853 318.7616 217.3927 15.44964143    02
0 FLOCK 2K 19 0F46
1 42886U PLANET   21100.93206019  .00000000  00000+0  22511-3 0    08
2 42886 096.8586 318.1873 0008869 321.0539 196.9190 15.44979410    06
0 FLOCK 2K 20 0F47
1 42885U PLANET   21100.93206019  .00000000  00000+0  25257-3 0    07
2 42885 096.8589 319.8188 0007439 313.2177 058.3631 15.48966045    03
0 FLOCK 2K 21 0F49
1 42860U PLANET   21100.93206019  .00000000  00000+0  20529-3 0    07
2 42860 096.8593 318.0825 0007654 335.0402 328.8322 15.44960007    02
0 FLOCK 2K 22 0F4A
1 42861U PLANET   21100.93206019  .00000000  00000+0  37692-3 0    07
2 42861 096.8539 322.3551 0005890 310.5232 209.6137 15.53439991    09
0 FLOCK 2K 23 0F4B
1 42859U PLANET   21100.93206019  .00000000  00000+0  28886-3 0    09
2 42859 096.8566 318.4086 0006885 333.8448 215.6527 15.46745906    05
0 FLOCK 3M 4 0F4C
1 42997U PLANET   21100.93206019  .00000000  00000+0  16060-3 0    03
2 42997 097.4317 212.3285 0015991 144.8548 079.5182 15.22832748    00
0 FLOCK 2K 25 0F4D
1 42884U PLANET   21100.93206019  .00000000  00000+0  18863-3 0    01
2 42884 096.8581 318.0993 0008296 322.5029 138.7481 15.44804751    07
0 FLOCK 3P 80 0F4E
1 42026U PLANET   21100.93206019  .00000000  00000+0  14055-3 0    08
2 42026 097.3311 170.5032 0006257 340.3258 315.0663 15.27516338    08
0 FLOCK 2K 24 0F4F
1 42857U PLANET   21100.93206019  .00000000  00000+0  27261-3 0    03
2 42857 096.8544 319.8614 0005915 325.4280 149.6733 15.49633200    06
0 FLOCK 3P 78 0F51
1 42047U PLANET   21100.93206019  .00000000  00000+0  15898-3 0    07
2 42047 097.3298 171.5761 0005798 329.0215 210.8735 15.29790651    07
0 FLOCK 3P 79 0F52
1 41984U PLANET   21100.93206019  .00000000  00000+0  21849-3 0    09
2 41984 097.3306 170.5778 0006137 340.0075 105.1946 15.28272509    04
0 FLOCK 2K 26 0F53
1 42883U PLANET   21100.93206019  .00000000  00000+0  27940-3 0    06
2 42883 096.8579 320.2063 0007032 313.1495 167.6185 15.49685037    07
0 FLOCK 2K 27 0F54
1 42882U PLANET   21100.93206019  .00000000  00000+0  25162-3 0    09
2 42882 096.8533 320.4090 0006738 310.9925 045.6222 15.50336666    03
0 FLOCK 3P 1 1000
1 41967U PLANET   21100.93206019  .00000000  00000+0  26275-3 0    08
2 41967 097.3279 172.0347 0005710 320.9988 004.9222 15.31252535    03
0 FLOCK 3P 2 1001
1 41966U PLANET   21100.93206019  .00000000  00000+0  13056-3 0    00
2 41966 097.3284 169.8685 0006394 329.5064 008.2535 15.27545907    03
0 FLOCK 3P 3 1002
1 41968U PLANET   21100.93206019  .00000000  00000+0  13645-3 0    06
2 41968 097.3282 170.1374 0006467 330.2727 125.3464 15.27898642    08
0 FLOCK 3P 4 1003
1 41965U PLANET   21100.93206019  .00000000  00000+0  17200-3 0    04
2 41965 097.3270 169.7437 0006751 332.3955 022.0319 15.27545758    07
0 FLOCK 3P 68 1004
1 42003U PLANET   21100.93206019  .00000000  00000+0  13204-3 0    08
2 42003 097.3282 169.9590 0006930 351.6536 231.1428 15.27709858    01
0 FLOCK 3P 54 1005
1 42014U PLANET   21100.93206019  .00000000  00000+0  16732-3 0    09
2 42014 097.3290 170.0287 0006420 001.3260 326.5442 15.27546138    00
0 FLOCK 3P 51 1006
1 41952U PLANET   21100.93206019  .00000000  00000+0  13811-3 0    04
2 41952 097.3271 169.9431 0006889 352.9370 187.3366 15.27604541    04
0 FLOCK 3P 53 1007
1 42013U PLANET   21100.93206019  .00000000  00000+0  23697-3 0    06
2 42013 097.3286 171.2000 0006330 359.0925 123.9679 15.30096446    08
0 FLOCK 3P 55 1008
1 42041U PLANET   21100.93206019  .00000000  00000+0  12421-3 0    00
2 42041 097.3275 170.0256 0006514 005.2412 124.0657 15.27565404    01
0 FLOCK 3P 58 1009
1 41977U PLANET   21100.93206019  .00000000  00000+0  15306-3 0    02
2 41977 097.3285 169.9146 0006450 334.8743 050.1380 15.27613132    05
0 FLOCK 3P 64 100A
1 42034U PLANET   21100.93206019  .00000000  00000+0  13461-3 0    07
2 42034 097.3274 169.9390 0006795 359.3968 277.8319 15.27521247    07
0 FLOCK 3P 7 100B
1 41970U PLANET   21100.93206019  .00000000  00000+0  19026-3 0    08
2 41970 097.3277 172.7362 0005489 319.2511 210.2824 15.31673273    01
0 FLOCK 3P 8 100C
1 41951U PLANET   21100.93206019  .00000000  00000+0  12410-3 0    07
2 41951 097.3274 169.7469 0006744 333.7574 353.3707 15.27382101    07
0 FLOCK 2K 45 100D
1 42856U PLANET   21100.93206019  .00000000  00000+0  26877-3 0    04
2 42856 096.8581 317.9409 0007556 334.2085 300.3064 15.44882117    02
0 FLOCK 3P 16 100E
1 42011U PLANET   21100.93206019  .00000000  00000+0  16073-3 0    04
2 42011 097.3282 170.2641 0006042 000.0943 056.3770 15.28810701    01
0 FLOCK 3P 56 100F
1 42042U PLANET   21100.93206019  .00000000  00000+0  22854-3 0    02
2 42042 097.3299 173.0058 0005430 352.2828 322.4616 15.30864386    07
0 FLOCK 3P 12 1010
1 41972U PLANET   21100.93206019  .00000000  00000+0  15422-3 0    06
2 41972 097.3287 169.9216 0006515 336.0765 081.3037 15.27576394    03
0 FLOCK 3P 46 1011
1 42031U PLANET   21100.93206019  .00000000  00000+0  92235-4 0    01
2 42031 097.3275 169.9416 0006624 355.0689 252.3940 15.27522028    04
0 FLOCK 3P 61 1012
1 42009U PLANET   21100.93206019  .00000000  00000+0  13647-3 0    05
2 42009 097.3282 170.0192 0006820 357.1551 265.8045 15.27534152    06
0 FLOCK 3P 66 1013
1 42027U PLANET   21100.93206019  .00000000  00000+0  82139-4 0    08
2 42027 097.3282 170.0290 0007034 352.3910 224.0444 15.27525043    08
0 FLOCK 3P 57 1014
1 41978U PLANET   21100.93206019  .00000000  00000+0  13823-3 0    05
2 41978 097.3279 169.9173 0006422 333.2659 136.1727 15.27558791    06
0 FLOCK 3P 63 1015
1 42035U PLANET   21100.93206019  .00000000  00000+0  15638-3 0    06
2 42035 097.3281 170.5986 0006323 356.0466 156.7561 15.29111829    06
0 FLOCK 3P 13 1016
1 42040U PLANET   21100.93206019  .00000000  00000+0  15561-3 0    07
2 42040 097.3288 171.6704 0005768 354.5708 131.2557 15.29982136    03
0 FLOCK 3P 67 1017
1 42002U PLANET   21100.93206019  .00000000  00000+0  24561-3 0    05
2 42002 097.3293 172.1699 0005926 344.3456 000.2423 15.30368048    08
0 FLOCK 3P 14 1018
1 42012U PLANET   21100.93206019  .00000000  00000+0  20622-3 0    00
2 42012 097.3302 170.4878 0006393 001.9876 111.1854 15.28197242    04
0 FLOCK 3P 44 1019
1 42033U PLANET   21100.93206019  .00000000  00000+0  17356-3 0    03
2 42033 097.3285 170.2524 0005900 354.1204 034.0716 15.28799739    03
0 FLOCK 3P 45 101A
1 42005U PLANET   21100.93206019  .00000000  00000+0  15671-3 0    00
2 42005 097.3296 172.3430 0005921 345.7501 215.9438 15.30450751    04
0 FLOCK 3P 60 101B
1 41976U PLANET   21100.93206019  .00000000  00000+0  12324-3 0    08
2 41976 097.3295 170.0893 0006171 336.4747 186.8221 15.27536706    01
0 FLOCK 2K 48 101C
1 42855U PLANET   21100.93206019  .00000000  00000+0  31173-3 0    08
2 42855 096.8559 319.2285 0006179 332.1551 027.9709 15.48461195    09
0 FLOCK 3P 15 101D
1 42039U PLANET   21100.93206019  .00000000  00000+0  24139-3 0    06
2 42039 097.3284 171.3200 0005828 355.5775 330.1198 15.29798189    01
0 FLOCK 3P 42 101E
1 42008U PLANET   21100.93206019  .00000000  00000+0  14706-3 0    01
2 42008 097.3276 170.2649 0006451 354.3200 257.3464 15.28674339    01
0 FLOCK 3P 11 101F
1 41975U PLANET   21100.93206019  .00000000  00000+0  17150-3 0    09
2 41975 097.3275 169.8536 0006607 333.3871 033.5474 15.27550818    04
0 FLOCK 2K 44 1020
1 42873U PLANET   21100.93206019  .00000000  00000+0  21402-3 0    02
2 42873 096.8583 318.0627 0008155 318.3758 166.2422 15.44976029    06
0 FLOCK 3P 9 1021
1 41973U PLANET   21100.93206019  .00000000  00000+0  15981-3 0    07
2 41973 097.3281 170.4615 0006048 329.9287 276.5542 15.29058339    04
0 FLOCK 3P 10 1022
1 41974U PLANET   21100.93206019  .00000000  00000+0  18053-3 0    01
2 41974 097.3291 171.3842 0005431 327.8512 143.1900 15.29818050    02
0 FLOCK 3P 17 1023
1 41962U PLANET   21100.93206019  .00000000  00000+0  13618-3 0    00
2 41962 097.3269 172.0694 0005693 321.7811 192.9933 15.30638241    04
0 FLOCK 3P 19 1024
1 41955U PLANET   21100.93206019  .00000000  00000+0  43387-3 0    08
2 41955 097.3254 170.3362 0006603 327.9507 340.8042 15.29752841    01
0 FLOCK 3P 23 1025
1 42018U PLANET   21100.93206019  .00000000  00000+0  16246-3 0    03
2 42018 097.3276 169.7309 0006723 329.6475 350.6998 15.27567893    03
0 FLOCK 3P 24 1026
1 41956U PLANET   21100.93206019  .00000000  00000+0  14268-3 0    05
2 41956 097.3287 172.3229 0006093 316.1238 067.7076 15.29267897    00
0 FLOCK 3P 47 1027
1 42032U PLANET   21100.93206019  .00000000  00000+0  11158-3 0    06
2 42032 097.3275 169.9579 0006673 354.5320 277.3893 15.27601758    07
0 FLOCK 3P 22 1028
1 41958U PLANET   21100.93206019  .00000000  00000+0  18181-3 0    05
2 41958 097.3308 172.0686 0005915 319.6862 206.8771 15.31105736    07
0 FLOCK 3P 20 1029
1 41950U PLANET   21100.93206019  .00000000  00000+0  14733-3 0    06
2 41950 097.3271 169.6420 0007377 332.0466 244.7643 15.27681055    06
0 FLOCK 3P 21 102A
1 41959U PLANET   21100.93206019  .00000000  00000+0  20287-3 0    06
2 41959 097.3285 171.3104 0006126 327.4616 122.1988 15.29879069    02
0 FLOCK 3P 18 102B
1 41957U PLANET   21100.93206019  .00000000  00000+0  16166-3 0    05
2 41957 097.3237 172.1471 0005835 316.4742 260.4498 15.31395886    02
0 FLOCK 3P 28 102C
1 41960U PLANET   21100.93206019  .00000000  00000+0  16321-3 0    02
2 41960 097.3267 170.7243 0006025 326.0495 151.5529 15.29452326    09
0 FLOCK 3P 26 102D
1 41961U PLANET   21100.93206019  .00000000  00000+0  22234-3 0    03
2 41961 097.3272 171.5494 0005878 323.3137 123.7588 15.30296812    05
0 FLOCK 3P 30 102E
1 41987U PLANET   21100.93206019  .00000000  00000+0  19932-3 0    02
2 41987 097.3306 170.5365 0006309 335.3945 053.8834 15.28784924    07
